FENGYUN 1C DEB          
1 35220U 99025DQC 17344.88763826  .00000548  00000-0  33828-3 0  9998
2 35220  99.1053 321.0474 0052519 252.2182 107.3253 14.09061536218979
